NORAD_CAT_ID,OBJECT_NAME,OBJECT_TYPE,EPOCH,MEAN_MOTION,ECCENTRICITY,INCLINATION,RA_OF_ASC_NODE,ARG_OF_PERICENTER,MEAN_ANOMALY,BSTAR,MEAN_MOTION_DOT,MEAN_MOTION_DDOT,TLE_LINE0,TLE_LINE1,TLE_LINE2,SEMIMAJOR_AXIS,PERIOD,APOGEE,PERIGEE,DECAYED
55282.0,STARLINK-5330,PAYLOAD,2023-10-23 12:05:36,14.98338271,0.0003021,69.9997,73.3156,267.3851,92.6962,-1.0916e-05,-2.23e-06,0.0,0 STARLINK-5330,1 55282U 23010P   23296.50389347 -.00000223  00000-0 -10916-4 0  9999,2 55282  69.9997  73.3156 0003021 267.3851  92.6962 14.98338271 42439,6950.167,96.106,574.132,569.933,0.0
55282.0,STARLINK-5330,PAYLOAD,2023-10-23 18:30:08,14.98337617,0.0003041,69.9998,72.6424,267.8257,92.2554,-1.3004e-05,-2.48e-06,0.0,0 STARLINK-5330,1 55282U 23010P   23296.77093291 -.00000248  00000-0 -13004-4 0  9996,2 55282  69.9998  72.6424 0003041 267.8257  92.2554 14.98337617 42770,6950.169,96.107,574.148,569.921,0.0
55282.0,STARLINK-5330,PAYLOAD,2023-10-24 02:30:52,14.98187485,0.0002467,69.9998,71.8003,285.6641,74.4245,0.0025452,0.00030295,0.0,0 STARLINK-5330,1 55282U 23010P   23297.10477407  .00030295  00000-0  25452-2 0  9990,2 55282  69.9998  71.8003 0002467 285.6641  74.4245 14.98187485 42528,6950.634,96.116,574.213,570.784,0.0
55282.0,STARLINK-5330,PAYLOAD,2023-10-24 12:07:38,14.98320632,0.0003113,69.9996,70.7896,272.7234,87.3568,7.6755e-05,8.23e-06,0.0,0 STARLINK-5330,1 55282U 23010P   23297.50530148  .00000823  00000-0  76755-4 0  9994,2 55282  69.9996  70.7896 0003113 272.7234  87.3568 14.98320632 42588,6950.222,96.108,574.25,569.923,0.0
55282.0,STARLINK-5330,PAYLOAD,2023-10-24 15:19:54,14.98323621,0.0003098,69.9996,70.4528,271.6987,88.3817,8.772e-05,9.54e-06,0.0,0 STARLINK-5330,1 55282U 23010P   23297.63881980  .00000954  00000-0  87720-4 0  9990,2 55282  69.9996  70.4528 0003098 271.6987  88.3817 14.98323621 42907,6950.213,96.107,574.231,569.924,0.0
55282.0,STARLINK-5330,PAYLOAD,2023-10-25 13:45:47,14.98328779,0.0003074,69.9997,68.0967,272.3709,87.7098,-2.954e-05,-4.45e-06,0.0,0 STARLINK-5330,1 55282U 23010P   23298.57346186 -.00000445  00000-0 -29540-4 0  9991,2 55282  69.9997  68.0967 0003074 272.3709  87.7098 14.98328779 42747,6950.197,96.107,574.198,569.925,0.0
55282.0,STARLINK-5330,PAYLOAD,2023-10-26 13:47:48,14.98324337,0.0003254,70.0005,65.5715,271.1756,88.903,4.3903e-05,4.31e-06,0.0,0 STARLINK-5330,1 55282U 23010P   23299.57486368  .00000431  00000-0  43903-4 0  9991,2 55282  70.0005  65.5715 0003254 271.1756  88.9030 14.98324337 43197,6950.21,96.107,574.337,569.814,0.0
55282.0,STARLINK-5330,PAYLOAD,2023-10-26 18:36:11,14.98331748,0.0003064,70.0004,65.0659,268.1646,91.9162,0.00011433,1.271e-05,0.0,0 STARLINK-5330,1 55282U 23010P   23299.77513727  .00001271  00000-0  11433-3 0  9998,2 55282  70.0004  65.0659 0003064 268.1646  91.9162 14.98331748 43229,6950.187,96.107,574.182,569.923,0.0
55282.0,STARLINK-5330,PAYLOAD,2023-10-27 12:13:39,14.98338027,0.000323,70.0001,63.2153,271.3627,88.7162,0.00014595,1.649e-05,0.0,0 STARLINK-5330,1 55282U 23010P   23300.50949059  .00001649  00000-0  14595-3 0  9994,2 55282  70.0001  63.2153 0003230 271.3627  88.7162 14.98338027 43338,6950.168,96.106,574.278,569.788,0.0
55282.0,STARLINK-5330,PAYLOAD,2023-10-27 18:38:11,14.98345005,0.000301,70.0008,62.5433,267.5318,92.5496,0.00019759,2.266e-05,0.0,0 STARLINK-5330,1 55282U 23010P   23300.77652270  .00002266  00000-0  19759-3 0  9992,2 55282  70.0008  62.5433 0003010 267.5318  92.5496 14.98345005 43076,6950.146,96.106,574.103,569.919,0.0
55282.0,STARLINK-5330,PAYLOAD,2023-10-28 01:02:44,14.9833399,0.0002823,70.0019,61.8674,286.3627,73.7221,4.2333e-05,4.12e-06,0.0,0 STARLINK-5330,1 55282U 23010P   23301.04357432  .00000412  00000-0  42333-4 0  9991,2 55282  70.0019  61.8674 0002823 286.3627  73.7221 14.98333990 43112,6950.181,96.107,574.008,570.084,0.0
55282.0,STARLINK-5330,PAYLOAD,2023-10-28 10:39:34,14.98320469,0.0003204,70.0006,60.8588,269.7914,90.2878,-7.1729e-05,-9.49e-06,0.0,0 STARLINK-5330,1 55282U 23010P   23301.44414418 -.00000949  00000-0 -71729-4 0  9991,2 55282  70.0006  60.8588 0003204 269.7914  90.2878 14.98320469 43174,6950.222,96.108,574.314,569.861,0.0
55282.0,STARLINK-5330,PAYLOAD,2023-10-28 13:51:50,14.98326022,0.0002965,70.0006,60.5223,271.38,88.7019,-0.00016184,-2.023e-05,0.0,0 STARLINK-5330,1 55282U 23010P   23301.57766375 -.00002023  00000-0 -16184-3 0  9995,2 55282  70.0006  60.5223 0002965 271.3800  88.7019 14.98326022 43498,6950.205,96.107,574.131,570.009,0.0
55282.0,STARLINK-5330,PAYLOAD,2023-10-28 17:04:06,14.98321274,0.0002921,70.0015,60.1868,266.2817,93.8008,-4.9926e-05,-6.88e-06,0.0,0 STARLINK-5330,1 55282U 23010P   23301.71118422 -.00000688  00000-0 -49926-4 0  9991,2 55282  70.0015  60.1868 0002921 266.2817  93.8008 14.98321274 43514,6950.22,96.108,574.115,570.055,0.0
55282.0,STARLINK-5330,PAYLOAD,2023-10-29 01:04:45,14.98335821,0.0003277,70.0006,59.3417,276.2557,83.8229,2.236e-06,-6.6e-07,0.0,0 STARLINK-5330,1 55282U 23010P   23302.04497294 -.00000066  00000-0  22360-5 0  9998,2 55282  70.0006  59.3417 0003277 276.2557  83.8229 14.98335821 43260,6950.175,96.107,574.317,569.762,0.0
55282.0,STARLINK-5330,PAYLOAD,2023-10-29 12:17:41,14.98348549,0.0003157,70.0005,58.1661,266.8343,93.2455,1.4571e-05,8.1e-07,0.0,0 STARLINK-5330,1 55282U 23010P   23302.51228220  .00000081  00000-0  14571-4 0  9991,2 55282  70.0005  58.1661 0003157 266.8343  93.2455 14.98348549 43337,6950.136,96.106,574.195,569.806,0.0
55282.0,STARLINK-5330,PAYLOAD,2023-10-29 13:53:49,14.98349245,0.0003207,70.0003,57.9975,268.2789,91.8003,3.3396e-05,3.06e-06,0.0,0 STARLINK-5330,1 55282U 23010P   23302.57904071  .00000306  00000-0  33396-4 0  9998,2 55282  70.0003  57.9975 0003207 268.2789  91.8003 14.98349245 43647,6950.133,96.106,574.227,569.769,0.0
55282.0,STARLINK-5330,PAYLOAD,2023-10-29 18:42:12,14.98353601,0.0003141,70.0004,57.4922,269.2791,90.8008,8.8242e-05,9.61e-06,0.0,0 STARLINK-5330,1 55282U 23010P   23302.77931497  .00000961  00000-0  88242-4 0  9999,2 55282  70.0004  57.4922 0003141 269.2791  90.8008 14.98353601 43674,6950.12,96.105,574.168,569.802,0.0
55282.0,STARLINK-5330,PAYLOAD,2023-10-30 12:19:44,14.9831284,0.0003056,70.0005,55.6408,268.197,91.8839,3.6048e-05,3.37e-06,0.0,0 STARLINK-5330,1 55282U 23010P   23303.51370477  .00000337  00000-0  36048-4 0  9991,2 55282  70.0005  55.6408 0003056 268.1970  91.8839 14.98312840 43488,6950.246,96.108,574.235,569.987,0.0
55282.0,STARLINK-5330,PAYLOAD,2023-10-30 17:08:07,14.98320766,0.0003111,69.9999,55.1349,269.1665,90.9137,5.8826e-05,6.09e-06,0.0,0 STARLINK-5330,1 55282U 23010P   23303.71398061  .00000609  00000-0  58826-4 0  9992,2 55282  69.9999  55.1349 0003111 269.1665  90.9137 14.98320766 43511,6950.221,96.108,574.249,569.924,0.0
55282.0,STARLINK-5330,PAYLOAD,2023-10-31 12:21:44,14.98328491,0.000308,70.0017,53.1161,269.3777,90.7029,-2.734e-05,-4.19e-06,0.0,0 STARLINK-5330,1 55282U 23010P   23304.51509670 -.00000419  00000-0 -27340-4 0  9999,2 55282  70.0017  53.1161 0003080 269.3777  90.7029 14.98328491 43630,6950.198,96.107,574.203,569.922,0.0
55282.0,STARLINK-5330,PAYLOAD,2023-10-31 13:57:52,14.98332919,0.0003111,70.0016,52.9473,268.8911,91.1892,2.7135e-05,2.31e-06,0.0,0 STARLINK-5330,1 55282U 23010P   23304.58185435  .00000231  00000-0  27135-4 0  9997,2 55282  70.0016  52.9473 0003111 268.8911  91.1892 14.98332919 43948,6950.184,96.107,574.211,569.887,0.0
55282.0,STARLINK-5330,PAYLOAD,2023-10-31 17:10:08,14.98336525,0.000309,70.0018,52.6107,269.406,90.6745,0.0001199,1.338e-05,0.0,0 STARLINK-5330,1 55282U 23010P   23304.71537317  .00001338  00000-0  11990-3 0  9992,2 55282  70.0018  52.6107 0003090 269.4060  90.6745 14.98336525 43969,6950.173,96.107,574.185,569.89,0.0
55282.0,STARLINK-5330,PAYLOAD,2023-11-01 13:59:53,14.98331842,0.0003047,70.0017,50.422,272.8694,87.2117,0.00036844,4.306e-05,0.0,0 STARLINK-5330,1 55282U 23010P   23305.58325930  .00004306  00000-0  36844-3 0  9997,2 55282  70.0017  50.4220 0003047 272.8694  87.2117 14.98331842 44090,6950.187,96.107,574.17,569.934,0.0
55282.0,STARLINK-5330,PAYLOAD,2023-11-01 17:12:09,14.98330218,0.0002876,70.0028,50.0866,270.2713,89.8116,0.00031497,3.667e-05,0.0,0 STARLINK-5330,1 55282U 23010P   23305.71678000  .00003667  00000-0  31497-3 0  9999,2 55282  70.0028  50.0866 0002876 270.2713  89.8116 14.98330218 43819,6950.192,96.107,574.056,570.058,0.0
55282.0,STARLINK-5330,PAYLOAD,2023-11-02 14:01:53,14.98343499,0.0002844,70.0026,47.8989,271.3916,88.6917,0.00029424,3.421e-05,0.0,0 STARLINK-5330,1 55282U 23010P   23306.58465234  .00003421  00000-0  29424-3 0  9993,2 55282  70.0026  47.8989 0002844 271.3916  88.6917 14.98343499 44248,6950.151,96.106,573.993,570.04,0.0
55282.0,STARLINK-5330,PAYLOAD,2023-11-02 17:14:09,14.98345713,0.0002821,70.003,47.5622,271.6848,88.3988,0.00036722,4.293e-05,0.0,0 STARLINK-5330,1 55282U 23010P   23306.71817095  .00004293  00000-0  36722-3 0  9991,2 55282  70.0030  47.5622 0002821 271.6848  88.3988 14.98345713 43960,6950.144,96.106,573.97,570.049,0.0
55282.0,STARLINK-5330,PAYLOAD,2023-11-02 23:38:42,14.98339677,0.0002556,70.0051,46.8882,271.8794,88.2072,0.00012989,1.458e-05,0.0,0 STARLINK-5330,1 55282U 23010P   23306.98521262  .00001458  00000-0  12989-3 0  9997,2 55282  70.0051  46.8882 0002556 271.8794  88.2072 14.98339677 44001,6950.163,96.106,573.804,570.252,0.0
55282.0,STARLINK-5330,PAYLOAD,2023-11-03 14:03:55,14.98333101,0.000241,70.0034,45.3747,263.3655,96.723,5.3006e-05,5.4e-06,0.0,0 STARLINK-5330,1 55282U 23010P   23307.58605468  .00000540  00000-0  53006-4 0  9992,2 55282  70.0034  45.3747 0002410 263.3655  96.7230 14.98333101 44395,6950.183,96.107,573.723,570.373,0.0
55282.0,STARLINK-5330,PAYLOAD,2023-11-03 15:40:03,14.98334269,0.0002441,70.0036,45.2065,268.1187,91.9693,2.3036e-05,1.82e-06,0.0,0 STARLINK-5330,1 55282U 23010P   23307.65281386  .00000182  00000-0  23036-4 0  9991,2 55282  70.0036  45.2065 0002441 268.1187  91.9693 14.98334269 44101,6950.18,96.107,573.741,570.348,0.0
